STARLINK-31281          
1 59077U 24041D   26068.09133247 -.00001342  00000+0 -39292-4 0  9990
2 59077  42.9991 313.7740 0000855 184.1324 175.9521 15.27562264114231
OTTER                   
1 62623U 25009Q   26068.72300813  .00012198  00000+0  45151-3 0  9990
2 62623  97.4065 151.3812 0003573 310.7710  49.3219 15.27809545 63722
